     2.11           N: GPS NAV DATA                         RINEX VERSION / TYPE
GNSS-SDR            joel                15-NOV-24 17:23     PGM / RUN BY / DATE 
GPS NAVIGATION MESSAGE FILE GENERATED BY GNSS-SDR           COMMENT             
GNSS-SDR VERSION 0.0.16                                     COMMENT             
See https://gnss-sdr.org                                    COMMENT             
     .1211D-07  -.7451D-08  -.5960D-07   .1192D-06          ION ALPHA           
     .1167D+06  -.2458D+06  -.6554D+05   .1114D+07          ION BETA            
     .279396772385D-08  .799360577730D-14   147456      143 DELTA-UTC: A0,A1,T,W
    18                                                      LEAP SECONDS        
                                                            END OF HEADER       
 5 02  5 18  0  0  0.0 -.663348473608D-04 -.136424205266D-11  .000000000000D+00 
     .740000000000D+02 -.837187500000D+02  .419517474587D-08  .201849251315D+01 
    -.437162816525D-05  .589362892788D-02  .123139470816D-04  .515364541054D+04 
     .518400000000D+06 -.540167093277D-07 -.411012408088D-01 -.689178705215D-07 
     .959403181279D+00  .143343750000D+03  .101488582113D+01 -.768674875537D-08 
     .500735143343D-09  .100000000000D+01  .116600000000D+04  .100000000000D+01 
     .000000000000D+00  .000000000000D+00 -.111758708954D-07  .740000000000D+02 
     .518532000000D+06  .000000000000D+00                                       
10 02  5 18  0  0  0.0 -.282293185592D-03 -.920863385545D-11  .000000000000D+00 
     .600000000000D+02 -.835000000000D+02  .381301597028D-08 -.261960097884D+01 
    -.436976552010D-05  .740606582258D-02  .119917094707D-04  .515368219948D+04 
     .518400000000D+06  .465661287308D-07 -.413083007708D-02 -.540167093277D-07 
     .972251247607D+00  .155656250000D+03 -.254667548104D+01 -.738780773185D-08 
     .538951020902D-09  .100000000000D+01  .116600000000D+04  .100000000000D+01 
     .000000000000D+00  .000000000000D+00  .232830643654D-08  .600000000000D+02 
     .518532000000D+06  .000000000000D+00                                       
12 02  5 18  0  0  0.0 -.149101484567D-03 -.557065504836D-11  .000000000000D+00 
     .176000000000D+03  .171093750000D+03  .409052752975D-08 -.194939317372D+01 
     .880472362041D-05  .851458113175D-02  .101346522570D-04  .515363542747D+04 
     .518400000000D+06  .158324837685D-06 -.307188056068D+01  .558793544769D-08 
     .971351794370D+00  .189531250000D+03  .123253696333D+01 -.765960476757D-08 
     .725030200418D-10  .100000000000D+01  .116600000000D+04  .100000000000D+01 
     .000000000000D+00  .000000000000D+00 -.121071934700D-07  .176000000000D+03 
     .518532000000D+06  .000000000000D+00                                       
13 02  5 18  0  0  0.0  .238196924329D-03  .579802872380D-11  .000000000000D+00 
     .130000000000D+02  .684375000000D+01  .481734351884D-08  .105377773380D+01 
     .288709998131D-06  .579103198834D-02  .555440783501D-05  .515366300964D+04 
     .518400000000D+06 -.540167093277D-07  .117907247310D+01  .279396772385D-07 
     .968071727227D+00  .275843750000D+03  .976888336577D+00 -.808497962900D-08 
     .187507810453D-09  .100000000000D+01  .116600000000D+04  .100000000000D+01 
     .000000000000D+00  .000000000000D+00 -.111758708954D-07  .130000000000D+02 
     .518532000000D+06  .000000000000D+00                                       
15 02  5 18  0  0  0.0 -.949474051595D-04  .272848410532D-11  .000000000000D+00 
     .710000000000D+02  .152500000000D+02  .563702051882D-08  .668019376226D+00 
     .910833477974D-06  .139201037819D-01  .651925802231D-05  .515370791817D+04 
     .518400000000D+06 -.191852450371D-06  .922034691520D+00  .353902578354D-07 
     .929574085612D+00  .239875000000D+03  .106835473377D+01 -.862893085818D-08 
     .395730769489D-09  .100000000000D+01  .116600000000D+04  .100000000000D+01 
     .000000000000D+00  .000000000000D+00 -.107102096081D-07  .710000000000D+02 
     .518532000000D+06  .000000000000D+00                                       
